ONEWEB-0574             
1 56063U 23043T   24085.90965755  .00008846  00000+0  21380-1 0  9997
2 56063  87.9269  45.8415 0001606  89.5103 270.6215 13.21782248 50836
ONEWEB-0575             
1 56064U 23043U   24085.91314354  .00000018  00000+0  14357-4 0  9994
2 56064  87.9137  30.6281 0002498  77.9178 282.2232 13.16594696 51951
ONEWEB-0576             
1 56065U 23043V   24085.89414215  .00000060  00000+0  12359-3 0  9995
2 56065  87.9126  30.6320 0002321  86.0540 274.0856 13.16595601 51940
ONEWEB-0577             
1 56066U 23043W   24085.90047538  .00000077  00000+0  16703-3 0  9993
2 56066  87.9128  30.6296 0002760  72.1742 287.9690 13.16595447 51972
ONEWEB-0578             
1 56067U 23043X   24085.89704149  .00000125  00000+0  27074-3 0  9997
2 56067  87.9272  45.8397 0002040  86.2234 273.9134 13.21828364 51708
ONEWEB-0579             
1 56068U 23043Y   24085.88758677  .00000061  00000+0  11649-3 0  9992
2 56068  87.9269  45.8420 0001786  68.3728 291.7596 13.21825242 50809
ONEWEB-0581             
1 56069U 23043Z   24085.90680828  .00000071  00000+0  15285-3 0  9999
2 56069  87.9128  30.6581 0002322  67.0242 293.1133 13.16595697 51949
ONEWEB-0609             
1 56070U 23043AA  24085.90274120  .00000015  00000+0  45495-5 0  9991
2 56070  87.8984  61.0628 0001829  85.1038 275.0301 13.15549568 49505
